[{"OBJECT_NAME":"STARLINK-3648","OBJECT_ID":"2022-025AP","EPOCH":"2026-03-09T07:05:03.126048","MEAN_MOTION":15.08832769,"ECCENTRICITY":0.00016727,"INCLINATION":53.2203,"RA_OF_ASC_NODE":40.8944,"ARG_OF_PERICENTER":94.3239,"MEAN_ANOMALY":265.7944,"EPHEMERIS_TYPE":0,"CLASSIFICATION_TYPE":"U","NORAD_CAT_ID":51993,"ELEMENT_SET_NO":999,"REV_AT_EPOCH":22100,"BSTAR":-3.056194e-5,"MEAN_MOTION_DOT":-7.74e-6,"MEAN_MOTION_DDOT":0},{"OBJECT_NAME":"FENGYUN 1C DEB","OBJECT_ID":"1999-025QK","EPOCH":"2026-03-09T09:38:35.752416","MEAN_MOTION":15.21777611,"ECCENTRICITY":0.00584989,"INCLINATION":98.8236,"RA_OF_ASC_NODE":15.4163,"ARG_OF_PERICENTER":235.7553,"MEAN_ANOMALY":123.8129,"EPHEMERIS_TYPE":0,"CLASSIFICATION_TYPE":"U","NORAD_CAT_ID":30082,"ELEMENT_SET_NO":999,"REV_AT_EPOCH":2608,"BSTAR":0.001566847,"MEAN_MOTION_DOT":0.00037313,"MEAN_MOTION_DDOT":0}]
